insert ignore into member(username,password,city,state,zip,role,status,email,joindate,lastlogin,avatarpath,adult) values('adultgreg','$2y$10$OZ2Km6SNiY5cfYC4gXlHzut7aD4wqoHRB6nAP7gPepB5kw8NOaKuO','Gregtown','NJ','07748','u','1','adultgreg@nowhere.com','2014-07-12 10:37:26','2014-07-12 10:37:26','','y');
insert ignore into member(username,password,city,state,zip,role,status,email,joindate,lastlogin,avatarpath,adult) values('adultbill','$2y$10$CWyTifrqqEoOpD8hN3s/yOxctuga8oIdgs2sU4YZ0RaHYS875QYGy','Billtown','FL','12345','u','1','adultbill@nowhere.com','2014-07-12 10:54:27','2014-07-12 10:54:27','','y');
insert ignore into member(username,password,city,state,zip,role,status,email,joindate,lastlogin,avatarpath,adult) values('adultchris','$2y$10$/I1WFWkP4s9N1.UEMHg8rea8eVlANjebd4ghc1xhINNRYeinVOOE2','Christown','CA','90210','u','1','adultchris@nowhere.com','2014-07-12 10:55:25','2014-07-12 10:55:25','','y');
insert ignore into member(username,password,city,state,zip,role,status,email,joindate,lastlogin,avatarpath,adult) values('adulthubert','$2y$10$uK4n/.nLVWhmp8Pib3y4Hu8IFfINJZ7zuHQjBPekPIf9kauVb.cH.','Huberttown','HI','81232','u','1','adulthubert@nowhere.com','2014-07-12 10:56:09','2014-07-12 10:56:09','','y');
insert ignore into member(username,password,city,state,zip,role,status,email,joindate,lastlogin,avatarpath,adult) values('adultconnor','$2y$10$C5iFX/Z8hLvRDmVVJPKlF.2LmNGNEny6vJ8AuUnrBT.mqWKFctdH.','Connortown','PA','09215','u','1','adultconnor@nowhere.com','2014-07-12 10:57:12','2014-07-12 10:57:12','','y');
insert ignore into member(username,password,city,state,zip,role,status,email,joindate,lastlogin,avatarpath,adult) values('kidjeff','$2y$10$cNC1V0AS7uiYsp9.GMlnf.knq0y6CDcSOs5onlbM1Qq1RlXxxjlX6','Jeffville','NY','02187','u','1','kidjeff@nowhere.com','2014-07-12 10:57:50','2014-07-12 10:57:50','','n');
insert ignore into member(username,password,city,state,zip,role,status,email,joindate,lastlogin,avatarpath,adult) values('kidkyle','$2y$10$euh8P8CGozuFvjsYIplvqO7fO/ka.QnuYlYValzCTxrVlgAg/4ZXy','Kyleville','MA','30321','u','1','kidkyle@nowhere.com','2014-07-12 10:58:26','2014-07-12 10:58:26','','n');
insert ignore into member(username,password,city,state,zip,role,status,email,joindate,lastlogin,avatarpath,adult) values('kidjane','$2y$10$Sr00cnFdHaAkqvHtmpLcKOhHVLBuRT3IXgSg2eZA7US0fODQuVOi6','Janeville','ND','45411','u','1','kidjane@nowhere.com','2014-07-12 10:59:05','2014-07-12 10:59:05','','n');
insert ignore into member(username,password,city,state,zip,role,status,email,joindate,lastlogin,avatarpath,adult) values('kidmary','$2y$10$7rbFTnz9pNWqDW49EK1ICuIbvAmb2O0vmabQzJJvRRN4BXBFPtjoK','Maryville','TX','57611','u','1','kidmary@nowhere.com','2014-07-12 10:59:40','2014-07-12 10:59:40','','n');
insert ignore into member(username,password,city,state,zip,role,status,email,joindate,lastlogin,avatarpath,adult) values('kidnick','$2y$10$DkqmtL2XPyM5m3jCA62de.KA8R6CwfNuWD.wcCvPppG..sSDK1py.','Nickville','NE','87321','u','1','kidnick@nowhere.com','2014-07-12 11:00:13','2014-07-12 11:00:13','','n');
insert ignore into member(username,password,city,state,zip,role,status,email,joindate,lastlogin,avatarpath,adult) values('hubert','$2y$10$uOkqYtYtemb4w9flcCUWG.3YKXmbgN8j8qpmVIKWWwVtsM/7VSUTW','','','','u','1','kidnick@nowhere.com','2014-07-12 11:00:13','2014-07-12 11:00:13','','n');


insert ignore into category(ownerid, name, description, keywords) values(11, "Technology", "For all your tech needs.", "tech, electronics, computers");
insert ignore into category(ownerid, name, description, keywords) values(2, "Health", "Everything health and wellfare", "meds, doctors, help");
insert ignore into category(ownerid, name, description, keywords) values(7, "School", "Everything school", "school, education");

insert ignore into article(categoryid, ownerid, name, description) values(1, 11, "Computers", "Everything computers");
insert ignore into article(categoryid, ownerid, name, description) values(1, 11, "Embedded Systems", "Everything embedded systems");
insert ignore into article(categoryid, ownerid, name, description) values(1, 11, "Programming", "Everything Programming");
insert ignore into article(categoryid, ownerid, name, description) values(2, 2, "Medicine", "Everything Medicine");
insert ignore into article(categoryid, ownerid, name, description) values(2, 2, "New Treatments", "New treatments");
insert ignore into article(categoryid, ownerid, name, description) values(2, 2, "Exercise", "Everything exercise");
insert ignore into article(categoryid, ownerid, name, description) values(1, 11, "Monmouth University", "Everything MU");
insert ignore into article(categoryid, ownerid, name, description) values(1, 11, "Monmouth Middle School", "Everything MUMS");
insert ignore into article(categoryid, ownerid, name, description) values(1, 11, "Monmouth Elementary School", "Everything MUES");

insert ignore into content(articleid, ownerid, message, description) values (1, 11, "Check out my PC", "I just built this baby");
insert ignore into content(articleid, ownerid, message, description) values (2, 1, "New Rasp PI Announced", "$25 on sale August.");
insert ignore into content(articleid, ownerid, message, description) values (3, 5, "Java8 is the best ever", "Lambda till i die");
insert ignore into content(articleid, ownerid, message, description) values (4, 9, "Tylenol and Alcohol?", "Can I take both?");
insert ignore into content(articleid, ownerid, message, description) values (5, 3, "Use baby oil to cure cancer", "#nojoke");
insert ignore into content(articleid, ownerid, message, description) values (6, 7, "What exercise should i be doing?", "Compound..?");
insert ignore into content(articleid, ownerid, message, description) values (7, 10, "MU Rocks", "At least I think so");
insert ignore into content(articleid, ownerid, message, description) values (8, 11, "Join the debate team", "WOOO");
insert ignore into content(articleid, ownerid, message, description) values (9, 11, "I got a 4.0", "Doesn't matter");
